id,category,satellite_name,tle_line1,tle_line2,inclination,eccentricity,period,perigee,apogee,epoch,raan,arg_perigee,mean_anomaly,mean_motion,semi_major_axis,velocity,orbit_type,satellite_age,bstar,rev_num,norad_number,ephemeris_type,intl_designator
1158,active,O3B FM14,1 43233U 18024C   25016.46868234 -.00000025  00000+0  00000+0 0  9991,2 43233   0.0580   3.8403 0002835 292.1875  63.9374  5.00115173125092,0.058,0.0002835,287.9336756295534,8061.9386309316415,8070.128397934326,2025-01-16 11:14:54.154176,3.8403000000000005,292.1875,63.9374,5.00115173,14444.033514432984,5.253208570565449,MEO,3,0,12509,43233,0,18024C
1120,active,YAOGAN-30 04C,1 43083U 17085C   25017.37783836  .00005719  00000+0  47191-3 0  9995,2 43083  34.9967  45.2218 0006141 306.1402  53.8736 14.98397644385214,34.9967,0.0006141,96.10266044972505,567.7157303243712,576.2517003235316,2025-01-17 09:04:05.234304,45.2218,306.1402,53.8736,14.98397644,6949.983715323951,7.573157593645267,LEO,2,0.00047191,38521,43083,0,17085C
1132,active,SBIRS GEO-3 (USA 282),1 43162U 18009A   25016.65145416  .00000132  00000+0  00000+0 0  9994,2 43162   2.1649 345.2108 0002625 308.1664 258.0547  1.00272678 25669,2.1649,0.0002625,1436.0841145581053,35775.41344630574,35797.549799157685,2025-01-16 15:38:05.639424,345.2108,308.1664,1.00272678,1.00272678,42164.48162273171,3.074648723928358,GEO,3,0,2566,43162,0,18009A
1125,active,CARTOSAT-2F,1 43111U 18004A   25017.62484670  .00008500  14076-7  40387-3 0  9998,2 43111  97.4769  79.6189 0000802 332.7847  27.3345 15.19264617389059,97.4769,8.02e-05,94.7826984112538,507.6465695342622,508.7511158286279,2025-01-17 14:59:46.75488,79.6189,332.7847,27.3345,15.19264617,6886.198842681445,7.608150734240602,LEO,2,0.00040387,38905,43111,0,18004A
5561,active,FLOCK 4Y-17,1 55031U 23001Y   25017.15925031  .00033906  00000+0  73189-3 0  9992,2 55031  97.3929  86.5422 0007322 123.7779 236.4168 15.44444661113613,97.3929,0.0007322,93.23739699858369,428.1601927425163,438.1344368703185,2025-01-17 03:49:19.226784,86.5422,123.7779,236.4168,15.44444661,6811.147314806417,7.649952721237933,LEO,2,0.00073189,11361,55031,0,23001Y
5616,active,2023-003E,1 55137U 23003E   25017.56536029  .00018613  00000+0  56204-3 0  9998,2 55137  97.2065  94.7513 0004773 176.3892 183.7387 15.34293573112696,97.2065,0.0004773,93.85426787549999,459.89129792780477,466.4218660009483,2025-01-17 13:34:07.129056,94.7513,176.3892,183.7387,15.34293573,6841.1565819643765,7.633155723391147,LEO,2,0.00056204,11269,55137,0,23003E
1172,active,IRIDIUM 143,1 43258U 18030K   25016.42346557  .00000492  00000+0  16843-3 0  9993,2 43258  86.4015 146.5743 0002353 105.6093 254.5362 14.34220620356022,86.4015,0.0002353,100.40296310898111,776.1108496220286,779.4783665645973,2025-01-16 10:09:47.425248,146.5743,105.6093,254.5362,14.3422062,7155.794608093313,7.463455617666766,LEO,3,0.00016843,35602,43258,0,18030K
1174,active,GAOFEN-1 03,1 43260U 18031B   25017.56208229  .00001743  00000+0  25673-3 0  9997,2 43260  97.7941  83.9265 0003835 247.3202 112.7603 14.76585244366603,97.7941,0.0003835,97.52230735416994,637.5691241076165,642.9521300085698,2025-01-17 13:29:23.909856,83.9265,247.3202,112.7603,14.76585244,7018.260627058093,7.536229957750771,LEO,2,0.00025673000000000004,36660,43260,0,18031B
1168,active,IRIDIUM 146,1 43254U 18030F   25017.58415996  .00000098  00000+0  28054-4 0  9991,2 43254  86.4010 145.9759 0002347 103.1998 256.9460 14.34218305356238,86.401,0.0002347,100.40312517138038,776.1228414954485,779.4817750989632,2025-01-17 14:01:11.420544,145.9759,103.19980000000001,256.946,14.34218305,7155.802308297206,7.463451602034208,LEO,2,2.8054000000000003e-05,35623,43254,0,18030F
1177,active,HYLAS 4,1 43272U 18033B   25017.03015494 -.00000231  00000+0  00000+0 0  9999,2 43272   0.0548 257.5531 0001372  84.0425 112.4677  1.00263677 24906,0.0548,0.0001372,1436.2130365516118,35783.219767994065,35794.79039418832,2025-01-17 00:43:25.386816,257.5531,84.0425,1.00263677,1.00263677,42167.00508109119,3.0745567223255312,GEO,2,0,2490,43272,0,18033B
1183,active,USA 283,1 43339U 18036A   25017.47271632 -.00000313  00000+0  00000+0 0  9993,2 43339   0.0136 136.1592 0000134 244.2229  41.0002  1.00270889 20110,0.0136,1.34e-05,1436.1097366953632,35786.41813361271,35787.548155160985,2025-01-17 11:20:42.690048,136.1592,244.22289999999998,1.00270889,1.00270889,42164.983144386846,3.0746304385243652,GEO,2,0,2011,43339,0,18036A
1179,active,YAOGAN-31 01B,1 43276U 18034B   25017.53899323  .00000056  00000+0  21080-3 0  9999,2 43276  63.3997 337.6110 0229549   5.8056 354.5548 13.45383274332841,63.39970000000001,0.0229549,107.0326967659329,918.0158632617595,1260.8440797680132,2025-01-17 12:56:09.015072,337.611,5.8056,354.5548,13.45383274,7467.429971514886,7.306061246876327,LEO,2,0.0002108,33284,43276,0,18034B
1180,active,YAOGAN-31 01C,1 43277U 18034C   25017.53884104  .00000058  00000+0  21407-3 0  9996,2 43277  63.4006 336.9190 0229631   5.5903 354.7606 13.45383351332869,63.4006,0.0229631,107.03269064015643,917.9543519575855,1260.905021230029,2025-01-17 12:55:55.865856,336.919,5.5903,354.7606,13.45383351,7467.429686593808,7.306061386258344,LEO,2,0.00021407000000000002,33286,43277,0,18034C
1184,active,COSMOS 2526,1 43432U 18037A   25017.08382866 -.00000341  00000+0  00000+0 0  9998,2 43432   0.0352 112.4896 0001594 335.6640 186.8195  1.00275642 24792,0.0352,0.0001594,1436.041666030919,35778.92985280776,35792.37162466327,2025-01-17 02:00:42.796224,112.4896,335.664,1.00275642,1.00275642,42163.650738735516,3.0746790185516684,MEO,2,0,2479,43432,0,18037A
1188,active,ZHUHAI-1 OHS-02,1 43441U 18040C   25017.60896756  .00016603  00000+0  64590-3 0  9993,2 43441  97.1014  64.5056 0010850 277.2872  82.7134 15.26033660 35628,97.1014,0.001085,94.36226983355006,480.37088874941946,495.2697188086204,2025-01-17 14:36:54.797184,64.5056,277.2872,15.2603366,15.2603366,6865.82030377902,7.619433298664623,LEO,2,0.0006459,3562,43441,0,18040C
1187,active,ZHUHAI-1 OVS-02,1 43440U 18040B   25017.57605315  .00016547  00000+0  62466-3 0  9994,2 43440  97.0940  60.4800 0000414 148.1004 212.0261 15.27085982374253,97.094,4.14e-05,94.29724435778364,484.381648067284,484.9498767924133,2025-01-17 13:49:30.99216,60.480000000000004,148.1004,212.0261,15.27085982,6862.665762429849,7.621184298694797,LEO,2,0.00062466,37425,43440,0,18040B
1189,active,USA 285,1 43445U 18036E   25017.02146691 -.00000180  00000+0  00000+0 0  9990,2 43445   5.8543  73.0994 0010724 153.1240 181.0822  1.02114914 21669,5.8543,0.0010724,1410.1759905511942,35233.1517487188,35322.49515886249,2025-01-17 00:30:54.741024,73.0994,153.124,1.02114914,1.02114914,41655.82345379065,3.0933639918828115,MEO,2,0,2166,43445,0,18036E
1193,active,BANGABANDHUSAT-1,1 43463U 18044A   25017.28695253 -.00000359  00000+0  00000+0 0  9998,2 43463   0.0254  99.5197 0002609 207.2334  32.5709  1.00273956 24534,0.0254,0.0002609,1436.065811545323,35775.12274227663,35797.123981846955,2025-01-17 06:53:12.698592,99.5197,207.2334,1.00273956,1.00273956,42164.12336206179,3.0746617862581767,GEO,2,0,2453,43463,0,18044A
1192,active,GAOFEN-5 01,1 43461U 18043A   25017.31281457  .00000919  00000+0  20222-3 0  9999,2 43461  98.3863 335.5720 0000871 195.0993 165.0180 14.59853572356402,98.38630000000002,8.71e-05,98.64002990568427,693.167878479514,694.3997832228479,2025-01-17 07:30:27.178848,335.572,195.0993,165.018,14.59853572,7071.783830851181,7.507656594731326,LEO,2,0.00020222000000000003,35640,43461,0,18043A
1162,active,BEIDOU-3 M10,1 43246U 18029B   25016.32964928 -.00000093  00000+0  00000+0 0  9997,2 43246  54.6485 317.9874 0004785 359.0661   0.9425  1.86228940 46264,54.6485,0.0004785,773.2417958240002,21515.04114619772,21541.747565596314,2025-01-16 07:54:41.697792,317.9874,359.0661,1.8622894,1.8622894,27906.394355897017,3.7793492268586033,MEO,3,0,4626,43246,0,18029B
1195,active,GRACE-FO 2,1 43477U 18047B   25017.58877745  .00006389  00000+0  20099-3 0  9999,2 43477  88.9738 269.3516 0010440 332.8763  27.1943 15.32740374370678,88.9738,0.001044,93.9493748861084,460.6304571619439,474.92444047507706,2025-01-17 14:07:50.37168,269.3516,332.8763,27.1943,15.32740374,6845.7774488185105,7.630579116817149,LEO,2,0.00020099,37067,43477,0,18047B
1196,active,IRIDIUM 161,1 43478U 18047C   25017.27825740  .00000776  00000+0  22462-3 0  9994,2 43478  86.4505 304.0605 0002218  80.8462 279.2990 14.43277691350724,86.4505,0.0002218,99.77289948979056,746.2459632399768,749.406979862757,2025-01-17 06:40:41.43936,304.0605,80.8462,279.299,14.43277691,7125.826471551367,7.479133180873495,LEO,2,0.00022462,35072,43478,0,18047C
1199,active,IRIDIUM 110,1 43481U 18047F   25017.52516294  .00000373  00000+0  12602-3 0  9995,2 43481  86.3982 303.8908 0001779  81.0502 279.0895 14.34220808348567,86.3982,0.0001779,100.40294994799713,776.5209670149561,779.066998514023,2025-01-17 12:36:14.078016,303.8908,81.05020000000002,279.0895,14.34220808,7155.79398276449,7.463455943774101,LEO,2,0.00012602,34856,43481,0,18047F
1200,active,IRIDIUM 162,1 43482U 18047G   25017.54925629  .00000764  00000+0  22119-3 0  9992,2 43482  86.4503 303.8444 0001919  85.2422 274.8997 14.43283262350759,86.4503,0.0001919,99.772514371472,746.440692073309,749.175577235389,2025-01-17 13:10:55.743456,303.8444,85.2422,274.8997,14.43283262,7125.8081346543495,7.479142803922846,LEO,2,0.00022119000000000002,35075,43482,0,18047G
4788,active,STARLINK-4435,1 53502U 22099AP  25017.56506968  .00000964  00000+0  79665-4 0  9992,2 53502  97.6557 141.3304 0002152 223.4741 136.6314 15.01263912133556,97.6557,0.0002152,95.91917773348835,561.641057009585,564.6285214228628,2025-01-17 13:33:42.020352,141.3304,223.4741,136.6314,15.01263912,6941.134789216224,7.577983387210592,LEO,2,7.9665e-05,13355,53502,0,22099AP
